NORAD_CAT_ID,OBJECT_NAME,OBJECT_TYPE,EPOCH,MEAN_MOTION,ECCENTRICITY,INCLINATION,RA_OF_ASC_NODE,ARG_OF_PERICENTER,MEAN_ANOMALY,BSTAR,MEAN_MOTION_DOT,MEAN_MOTION_DDOT,TLE_LINE0,TLE_LINE1,TLE_LINE2,SEMIMAJOR_AXIS,PERIOD,APOGEE,PERIGEE,DECAYED
52478.0,STARLINK-3825,PAYLOAD,2024-02-07 20:45:07,15.08837778,0.0001251,53.2165,234.5973,84.8186,275.2949,5.162e-06,-2.06e-06,0.0,0 STARLINK-3825,1 52478U 22049AD  24038.86466691 -.00000206  00000-0  51620-5 0  9994,2 52478  53.2165 234.5973 0001251  84.8186 275.2949 15.08837778 98635,6917.887,95.438,540.618,538.887,0.0
52478.0,STARLINK-3825,PAYLOAD,2024-02-08 06:17:25,15.0884287,0.0001263,53.2167,232.8135,84.5366,275.577,4.4861e-05,4.26e-06,0.0,0 STARLINK-3825,1 52478U 22049AD  24039.26210288  .00000426  00000-0  44861-4 0  9999,2 52478  53.2167 232.8135 0001263  84.5366 275.5770 15.08842870 97619,6917.872,95.437,540.61,538.863,0.0
52478.0,STARLINK-3825,PAYLOAD,2024-02-08 19:00:30,15.0884792,0.0001266,53.2158,230.4356,77.7871,282.3263,0.00010417,1.371e-05,0.0,0 STARLINK-3825,1 52478U 22049AD  24039.79201662  .00001371  00000-0  10417-3 0  9992,2 52478  53.2158 230.4356 0001266  77.7871 282.3263 15.08847920 98778,6917.856,95.437,540.597,538.845,0.0
52478.0,STARLINK-3825,PAYLOAD,2024-02-09 12:29:45,15.08840946,0.0001233,53.2157,227.166,68.0719,292.0404,4.406e-05,4.13e-06,0.0,0 STARLINK-3825,1 52478U 22049AD  24040.52066280  .00000413  00000-0  44060-4 0  9998,2 52478  53.2157 227.1660 0001233  68.0719 292.0404 15.08840946 98884,6917.877,95.437,540.595,538.89,0.0
52478.0,STARLINK-3825,PAYLOAD,2024-02-09 18:51:17,15.08840477,0.0001218,53.2161,225.9754,72.8287,287.2838,4.2271e-05,3.85e-06,0.0,0 STARLINK-3825,1 52478U 22049AD  24040.78562277  .00000385  00000-0  42271-4 0  9993,2 52478  53.2161 225.9754 0001218  72.8287 287.2838 15.08840477 97846,6917.879,95.438,540.587,538.901,0.0
52478.0,STARLINK-3825,PAYLOAD,2024-02-10 12:20:32,15.08838982,0.0001341,53.2169,222.703,79.9167,280.1977,-4.5173e-05,-1.007e-05,0.0,0 STARLINK-3825,1 52478U 22049AD  24041.51426689 -.00001007  00000-0 -45173-4 0  9999,2 52478  53.2169 222.7030 0001341  79.9167 280.1977 15.08838982 99035,6917.884,95.438,540.676,538.821,0.0
52478.0,STARLINK-3825,PAYLOAD,2024-02-10 17:06:41,15.08840372,0.0001294,53.2167,221.8109,80.0412,280.0727,-3.0456e-05,-7.73e-06,0.0,0 STARLINK-3825,1 52478U 22049AD  24041.71298536 -.00000773  00000-0 -30456-4 0  9996,2 52478  53.2167 221.8109 0001294  80.0412 280.0727 15.08840372 99064,6917.879,95.438,540.639,538.849,0.0
52478.0,STARLINK-3825,PAYLOAD,2024-02-11 12:11:19,15.08832493,0.000134,53.2167,218.2419,101.322,258.7922,2.2496e-06,-2.52e-06,0.0,0 STARLINK-3825,1 52478U 22049AD  24042.50786999 -.00000252  00000-0  22496-5 0  9996,2 52478  53.2167 218.2419 0001340 101.3220 258.7922 15.08832493 98102,6917.903,95.438,540.695,538.841,0.0
52478.0,STARLINK-3825,PAYLOAD,2024-02-11 18:32:52,15.08829704,0.0001315,53.2165,217.0522,100.7999,259.3141,-2.2711e-05,-6.49e-06,0.0,0 STARLINK-3825,1 52478U 22049AD  24042.77283390 -.00000649  00000-0 -22711-4 0  9992,2 52478  53.2165 217.0522 0001315 100.7999 259.3141 15.08829704 99225,6917.912,95.438,540.687,538.867,0.0
52478.0,STARLINK-3825,PAYLOAD,2024-02-12 16:48:15,15.08843605,0.0001175,53.216,212.8886,84.6317,275.4809,0.00010596,1.399e-05,0.0,0 STARLINK-3825,1 52478U 22049AD  24043.70018424  .00001399  00000-0  10596-3 0  9998,2 52478  53.2160 212.8886 0001175  84.6317 275.4809 15.08843605 98285,6917.869,95.437,540.547,538.922,0.0
52478.0,STARLINK-3825,PAYLOAD,2024-02-13 05:31:20,15.08842735,0.0001245,53.216,210.5121,71.9371,288.1757,0.00017728,2.535e-05,0.0,0 STARLINK-3825,1 52478U 22049AD  24044.23010241  .00002535  00000-0  17728-3 0  9993,2 52478  53.2160 210.5121 0001245  71.9371 288.1757 15.08842735 99444,6917.872,95.437,540.598,538.876,0.0
52478.0,STARLINK-3825,PAYLOAD,2024-02-13 19:49:50,15.08835558,0.0001363,53.2166,207.836,86.1689,273.9459,0.00012217,1.657e-05,0.0,0 STARLINK-3825,1 52478U 22049AD  24044.82627392  .00001657  00000-0  12217-3 0  9991,2 52478  53.2166 207.8360 0001363  86.1689 273.9459 15.08835558 98451,6917.894,95.438,540.702,538.816,0.0
52478.0,STARLINK-3825,PAYLOAD,2024-02-14 14:54:27,15.08845095,0.0001496,53.2181,204.2692,73.9556,286.16,3.0493e-05,1.97e-06,0.0,0 STARLINK-3825,1 52478U 22049AD  24045.62115096  .00000197  00000-0  30493-4 0  9998,2 52478  53.2181 204.2692 0001496  73.9556 286.1600 15.08845095 99655,6917.865,95.437,540.765,538.695,0.0
52478.0,STARLINK-3825,PAYLOAD,2024-02-14 16:29:50,15.08843115,0.0001531,53.2174,203.9716,95.5244,264.5923,0.00011357,1.52e-05,0.0,0 STARLINK-3825,1 52478U 22049AD  24045.68738873  .00001520  00000-0  11357-3 0  9996,2 52478  53.2174 203.9716 0001531  95.5244 264.5923 15.08843115 98584,6917.871,95.437,540.795,538.677,0.0
52478.0,STARLINK-3825,PAYLOAD,2024-02-15 09:59:05,15.08832878,0.000175,53.2171,200.6998,80.874,279.245,0.00010183,1.333e-05,0.0,0 STARLINK-3825,1 52478U 22049AD  24046.41603613  .00001333  00000-0  10183-3 0  9999,2 52478  53.2171 200.6998 0001750  80.8740 279.2450 15.08832878 98692,6917.902,95.438,540.978,538.557,0.0
52478.0,STARLINK-3825,PAYLOAD,2024-02-15 14:45:15,15.08831594,0.0001742,53.2161,199.8063,82.1946,277.9244,8.2781e-05,1.029e-05,0.0,0 STARLINK-3825,1 52478U 22049AD  24046.61475853  .00001029  00000-0  82781-4 0  9990,2 52478  53.2161 199.8063 0001742  82.1946 277.9244 15.08831594 99801,6917.906,95.438,540.976,538.566,0.0
52478.0,STARLINK-3825,PAYLOAD,2024-02-15 19:31:24,15.08839295,0.0001357,53.2165,198.9137,87.1795,272.9353,5.4758e-05,5.84e-06,0.0,0 STARLINK-3825,1 52478U 22049AD  24046.81347392  .00000584  00000-0  54758-4 0  9996,2 52478  53.2165 198.9137 0001357  87.1795 272.9353 15.08839295 99831,6917.883,95.438,540.686,538.809,0.0
52478.0,STARLINK-3825,PAYLOAD,2024-02-16 09:49:52,15.08855838,0.0001518,53.2167,196.2376,95.0209,265.0957,-0.0001248,-2.275e-05,0.0,0 STARLINK-3825,1 52478U 22049AD  24047.40963029 -.00002275  00000-0 -12480-3 0  9999,2 52478  53.2167 196.2376 0001518  95.0209 265.0957 15.08855838 98840,6917.832,95.437,540.747,538.647,0.0
52478.0,STARLINK-3825,PAYLOAD,2024-02-16 14:36:01,15.0884929,0.0001353,53.2164,195.3463,78.7316,281.3828,8.346e-05,1.041e-05,0.0,0 STARLINK-3825,1 52478U 22049AD  24047.60834728  .00001041  00000-0  83460-4 0  9999,2 52478  53.2164 195.3463 0001353  78.7316 281.3828 15.08849290 99954,6917.852,95.437,540.653,538.781,0.0
52478.0,STARLINK-3825,PAYLOAD,2024-02-16 16:11:24,15.08849464,0.000138,53.2156,195.049,73.5485,286.5659,9.08e-05,1.158e-05,0.0,0 STARLINK-3825,1 52478U 22049AD  24047.67458716  .00001158  00000-0  90800-4 0  9990,2 52478  53.2156 195.0490 0001380  73.5485 286.5659 15.08849464 99965,6917.851,95.437,540.671,538.762,0.0
52478.0,STARLINK-3825,PAYLOAD,2024-02-17 09:40:39,15.08831643,0.0001795,53.219,191.7796,85.183,274.9367,0.00011871,1.601e-05,0.0,0 STARLINK-3825,1 52478U 22049AD  24048.40323878  .00001601  00000-0  11871-3 0  9995,2 52478  53.2190 191.7796 0001795  85.1830 274.9367 15.08831643 98997,6917.906,95.438,541.013,538.529,0.0
52478.0,STARLINK-3825,PAYLOAD,2024-02-17 14:26:49,15.08831061,0.0001686,53.2177,190.887,89.9426,270.176,6.1624e-05,6.93e-06,0.0,0 STARLINK-3825,1 52478U 22049AD  24048.60195982  .00000693  00000-0  61624-4 0  9992,2 52478  53.2177 190.8870 0001686  89.9426 270.1760 15.08831061100103,6917.908,95.438,540.939,538.606,0.0
52478.0,STARLINK-3825,PAYLOAD,2024-02-17 16:02:12,15.08833816,0.0001669,53.2171,190.5894,95.6204,264.4978,8.2154e-05,1.019e-05,0.0,0 STARLINK-3825,1 52478U 22049AD  24048.66819693  .00001019  00000-0  82154-4 0  9994,2 52478  53.2171 190.5894 0001669  95.6204 264.4978 15.08833816100117,6917.899,95.438,540.919,538.61,0.0
52478.0,STARLINK-3825,PAYLOAD,2024-02-18 09:31:26,15.08841546,0.0001661,53.2168,187.3174,99.6421,260.4759,-3.8491e-06,-3.49e-06,0.0,0 STARLINK-3825,1 52478U 22049AD  24049.39683549 -.00000349  00000-0 -38491-5 0  9997,2 52478  53.2168 187.3174 0001661  99.6421 260.4759 15.08841546 99147,6917.876,95.437,540.89,538.592,0.0
52478.0,STARLINK-3825,PAYLOAD,2024-02-18 14:17:35,15.08844902,0.000155,53.2175,186.4263,97.2087,262.9082,3.3432e-05,2.44e-06,0.0,0 STARLINK-3825,1 52478U 22049AD  24049.59555200  .00000244  00000-0  33432-4 0  9992,2 52478  53.2175 186.4263 0001550  97.2087 262.9082 15.08844902100253,6917.865,95.437,540.803,538.658,0.0
52478.0,STARLINK-3825,PAYLOAD,2024-02-18 15:52:58,15.088465,0.0001368,53.2166,186.1316,81.5249,278.5898,6.3864e-05,7.29e-06,0.0,0 STARLINK-3825,1 52478U 22049AD  24049.66179075  .00000729  00000-0  63864-4 0  9992,2 52478  53.2166 186.1316 0001368  81.5249 278.5898 15.08846500100267,6917.861,95.437,540.672,538.779,0.0
52478.0,STARLINK-3825,PAYLOAD,2024-02-19 14:08:23,15.0883101,0.0001526,53.2181,181.9669,87.4233,272.6934,5.2017e-05,5.4e-06,0.0,0 STARLINK-3825,1 52478U 22049AD  24050.58916296  .00000540  00000-0  52017-4 0  9998,2 52478  53.2181 181.9669 0001526  87.4233 272.6934 15.08831010100404,6917.908,95.438,540.829,538.717,0.0
52478.0,STARLINK-3825,PAYLOAD,2024-02-19 15:43:46,15.08834946,0.0001409,53.2178,181.6694,99.2949,260.8203,8.3021e-05,1.033e-05,0.0,0 STARLINK-3825,1 52478U 22049AD  24050.65539878  .00001033  00000-0  83021-4 0  9990,2 52478  53.2178 181.6694 0001409  99.2949 260.8203 15.08834946 99338,6917.896,95.438,540.736,538.786,0.0
52478.0,STARLINK-3825,PAYLOAD,2024-02-20 15:34:34,15.08833032,0.0001542,53.2187,177.2117,103.9646,256.1518,-2.6448e-05,-7.09e-06,0.0,0 STARLINK-3825,1 52478U 22049AD  24051.64900698 -.00000709  00000-0 -26448-4 0  9993,2 52478  53.2187 177.2117 0001542 103.9646 256.1518 15.08833032100564,6917.902,95.438,540.833,538.7,0.0
52478.0,STARLINK-3825,PAYLOAD,2024-02-21 12:14:34,15.08842704,0.0001695,53.2192,173.3457,103.2119,256.9062,6.793e-05,7.93e-06,0.0,0 STARLINK-3825,1 52478U 22049AD  24052.51012022  .00000793  00000-0  67930-4 0  9997,2 52478  53.2192 173.3457 0001695 103.2119 256.9062 15.08842704 99612,6917.872,95.437,540.91,538.565,0.0
